ORBCOMM FM05 [-]        
1 25117U 97084F   24032.97735040  .00001566  00000+0  51520-3 0  9993
2 25117  45.0146 247.0370 0002274 218.6894 141.3794 14.42095347368166
ORBCOMM FM06 [+]        
1 25118U 97084G   24033.72207140  .00001666  00000+0  54556-3 0  9996
2 25118  45.0140 243.6644 0001492 233.7187 246.3666 14.42085886369208
ORBCOMM FM07 [-]        
1 25119U 97084H   24033.68524654  .00001612  00000+0  52979-3 0  9992
2 25119  45.0133 244.3254 0002998 209.6625 150.4055 14.42016763369190
ORBCOMM FM03 [-]        
1 25158U 98007B   24033.36936738  .00001416  00000+0  57162-3 0  9997
2 25158 107.9752 188.8489 0045510  41.4217 319.0358 14.31779796352298
ORBCOMM FM04 [+]        
1 25159U 98007C   24033.37555118  .00001299  00000+0  52715-3 0  9996
2 25159 107.9739 191.7334 0041127  38.9497 321.4592 14.32034582352461
ORBCOMM FM17 [-]        
1 25413U 98046A   24033.53642462  .00001066  00000+0  43873-3 0  9996
2 25413  44.9950  95.9654 0004021 236.8897 123.1564 14.32763976331317
ORBCOMM FM18 [-]        
1 25414U 98046B   24033.01903020  .00001606  00000+0  60285-3 0  9996
2 25414  44.9955  27.5339 0006182 283.7831  76.2328 14.35400839332162
ORBCOMM FM19 [+]        
1 25415U 98046C   24033.42174010  .00001578  00000+0  59523-3 0  9992
2 25415  44.9965  26.9137 0005008 282.6964 233.5221 14.35245241332180
