<?xml version="1.0" encoding="UTF-8"?>
<ndm xmlns:xsi="http://www.w3.org/2001/XMLSchema-instance" xsi:noNamespaceSchemaLocation="https://sanaregistry.org/r/ndmxml_unqualified/ndmxml-2.0.0-master-2.0.xsd">
<omm id="CCSDS_OMM_VERS" version="2.0">
<header><CREATION_DATE/><ORIGINATOR/></header><body><segment><metadata><OBJECT_NAME>ORBCOMM FM05 [-]</OBJECT_NAME><OBJECT_ID>1997-084F</OBJECT_ID><CENTER_NAME>EARTH</CENTER_NAME><REF_FRAME>TEME</REF_FRAME><TIME_SYSTEM>UTC</TIME_SYSTEM><MEAN_ELEMENT_THEORY>SGP4</MEAN_ELEMENT_THEORY></metadata><data><meanElements><EPOCH>2024-02-01T23:27:23.074560</EPOCH><MEAN_MOTION>14.42095347</MEAN_MOTION><ECCENTRICITY>.0002274</ECCENTRICITY><INCLINATION>45.0146</INCLINATION><RA_OF_ASC_NODE>247.0370</RA_OF_ASC_NODE><ARG_OF_PERICENTER>218.6894</ARG_OF_PERICENTER><MEAN_ANOMALY>141.3794</MEAN_ANOMALY></meanElements><tleParameters><EPHEMERIS_TYPE>0</EPHEMERIS_TYPE><CLASSIFICATION_TYPE>U</CLASSIFICATION_TYPE><NORAD_CAT_ID>25117</NORAD_CAT_ID><ELEMENT_SET_NO>999</ELEMENT_SET_NO><REV_AT_EPOCH>36816</REV_AT_EPOCH><BSTAR>.5152E-3</BSTAR><MEAN_MOTION_DOT>.1566E-4</MEAN_MOTION_DOT><MEAN_MOTION_DDOT>0</MEAN_MOTION_DDOT></tleParameters></data></segment></body></omm>
<omm id="CCSDS_OMM_VERS" version="2.0">
<header><CREATION_DATE/><ORIGINATOR/></header><body><segment><metadata><OBJECT_NAME>ORBCOMM FM06 [+]</OBJECT_NAME><OBJECT_ID>1997-084G</OBJECT_ID><CENTER_NAME>EARTH</CENTER_NAME><REF_FRAME>TEME</REF_FRAME><TIME_SYSTEM>UTC</TIME_SYSTEM><MEAN_ELEMENT_THEORY>SGP4</MEAN_ELEMENT_THEORY></metadata><data><meanElements><EPOCH>2024-02-02T17:19:46.968960</EPOCH><MEAN_MOTION>14.42085886</MEAN_MOTION><ECCENTRICITY>.0001492</ECCENTRICITY><INCLINATION>45.0140</INCLINATION><RA_OF_ASC_NODE>243.6644</RA_OF_ASC_NODE><ARG_OF_PERICENTER>233.7187</ARG_OF_PERICENTER><MEAN_ANOMALY>246.3666</MEAN_ANOMALY></meanElements><tleParameters><EPHEMERIS_TYPE>0</EPHEMERIS_TYPE><CLASSIFICATION_TYPE>U</CLASSIFICATION_TYPE><NORAD_CAT_ID>25118</NORAD_CAT_ID><ELEMENT_SET_NO>999</ELEMENT_SET_NO><REV_AT_EPOCH>36920</REV_AT_EPOCH><BSTAR>.54556E-3</BSTAR><MEAN_MOTION_DOT>.1666E-4</MEAN_MOTION_DOT><MEAN_MOTION_DDOT>0</MEAN_MOTION_DDOT></tleParameters></data></segment></body></omm>
<omm id="CCSDS_OMM_VERS" version="2.0">
<header><CREATION_DATE/><ORIGINATOR/></header><body><segment><metadata><OBJECT_NAME>ORBCOMM FM07 [-]</OBJECT_NAME><OBJECT_ID>1997-084H</OBJECT_ID><CENTER_NAME>EARTH</CENTER_NAME><REF_FRAME>TEME</REF_FRAME><TIME_SYSTEM>UTC</TIME_SYSTEM><MEAN_ELEMENT_THEORY>SGP4</MEAN_ELEMENT_THEORY></metadata><data><meanElements><EPOCH>2024-02-02T16:26:45.301056</EPOCH><MEAN_MOTION>14.42016763</MEAN_MOTION><ECCENTRICITY>.0002998</ECCENTRICITY><INCLINATION>45.0133</INCLINATION><RA_OF_ASC_NODE>244.3254</RA_OF_ASC_NODE><ARG_OF_PERICENTER>209.6625</ARG_OF_PERICENTER><MEAN_ANOMALY>150.4055</MEAN_ANOMALY></meanElements><tleParameters><EPHEMERIS_TYPE>0</EPHEMERIS_TYPE><CLASSIFICATION_TYPE>U</CLASSIFICATION_TYPE><NORAD_CAT_ID>25119</NORAD_CAT_ID><ELEMENT_SET_NO>999</ELEMENT_SET_NO><REV_AT_EPOCH>36919</REV_AT_EPOCH><BSTAR>.52979E-3</BSTAR><MEAN_MOTION_DOT>.1612E-4</MEAN_MOTION_DOT><MEAN_MOTION_DDOT>0</MEAN_MOTION_DDOT></tleParameters></data></segment></body></omm>
<omm id="CCSDS_OMM_VERS" version="2.0">
<header><CREATION_DATE/><ORIGINATOR/></header><body><segment><metadata><OBJECT_NAME>ORBCOMM FM03 [-]</OBJECT_NAME><OBJECT_ID>1998-007B</OBJECT_ID><CENTER_NAME>EARTH</CENTER_NAME><REF_FRAME>TEME</REF_FRAME><TIME_SYSTEM>UTC</TIME_SYSTEM><MEAN_ELEMENT_THEORY>SGP4</MEAN_ELEMENT_THEORY></metadata><data><meanElements><EPOCH>2024-02-02T08:51:53.341632</EPOCH><MEAN_MOTION>14.31779796</MEAN_MOTION><ECCENTRICITY>.004551</ECCENTRICITY><INCLINATION>107.9752</INCLINATION><RA_OF_ASC_NODE>188.8489</RA_OF_ASC_NODE><ARG_OF_PERICENTER>41.4217</ARG_OF_PERICENTER><MEAN_ANOMALY>319.0358</MEAN_ANOMALY></meanElements><tleParameters><EPHEMERIS_TYPE>0</EPHEMERIS_TYPE><CLASSIFICATION_TYPE>U</CLASSIFICATION_TYPE><NORAD_CAT_ID>25158</NORAD_CAT_ID><ELEMENT_SET_NO>999</ELEMENT_SET_NO><REV_AT_EPOCH>35229</REV_AT_EPOCH><BSTAR>.57162E-3</BSTAR><MEAN_MOTION_DOT>.1416E-4</MEAN_MOTION_DOT><MEAN_MOTION_DDOT>0</MEAN_MOTION_DDOT></tleParameters></data></segment></body></omm>
<omm id="CCSDS_OMM_VERS" version="2.0">
<header><CREATION_DATE/><ORIGINATOR/></header><body><segment><metadata><OBJECT_NAME>ORBCOMM FM04 [+]</OBJECT_NAME><OBJECT_ID>1998-007C</OBJECT_ID><CENTER_NAME>EARTH</CENTER_NAME><REF_FRAME>TEME</REF_FRAME><TIME_SYSTEM>UTC</TIME_SYSTEM><MEAN_ELEMENT_THEORY>SGP4</MEAN_ELEMENT_THEORY></metadata><data><meanElements><EPOCH>2024-02-02T09:00:47.621952</EPOCH><MEAN_MOTION>14.32034582</MEAN_MOTION><ECCENTRICITY>.0041127</ECCENTRICITY><INCLINATION>107.9739</INCLINATION><RA_OF_ASC_NODE>191.7334</RA_OF_ASC_NODE><ARG_OF_PERICENTER>38.9497</ARG_OF_PERICENTER><MEAN_ANOMALY>321.4592</MEAN_ANOMALY></meanElements><tleParameters><EPHEMERIS_TYPE>0</EPHEMERIS_TYPE><CLASSIFICATION_TYPE>U</CLASSIFICATION_TYPE><NORAD_CAT_ID>25159</NORAD_CAT_ID><ELEMENT_SET_NO>999</ELEMENT_SET_NO><REV_AT_EPOCH>35246</REV_AT_EPOCH><BSTAR>.52715E-3</BSTAR><MEAN_MOTION_DOT>.1299E-4</MEAN_MOTION_DOT><MEAN_MOTION_DDOT>0</MEAN_MOTION_DDOT></tleParameters></data></segment></body></omm>
<omm id="CCSDS_OMM_VERS" version="2.0">
<header><CREATION_DATE/><ORIGINATOR/></header><body><segment><metadata><OBJECT_NAME>ORBCOMM FM17 [-]</OBJECT_NAME><OBJECT_ID>1998-046A</OBJECT_ID><CENTER_NAME>EARTH</CENTER_NAME><REF_FRAME>TEME</REF_FRAME><TIME_SYSTEM>UTC</TIME_SYSTEM><MEAN_ELEMENT_THEORY>SGP4</MEAN_ELEMENT_THEORY></metadata><data><meanElements><EPOCH>2024-02-02T12:52:27.087168</EPOCH><MEAN_MOTION>14.32763976</MEAN_MOTION><ECCENTRICITY>.0004021</ECCENTRICITY><INCLINATION>44.9950</INCLINATION><RA_OF_ASC_NODE>95.9654</RA_OF_ASC_NODE><ARG_OF_PERICENTER>236.8897</ARG_OF_PERICENTER><MEAN_ANOMALY>123.1564</MEAN_ANOMALY></meanElements><tleParameters><EPHEMERIS_TYPE>0</EPHEMERIS_TYPE><CLASSIFICATION_TYPE>U</CLASSIFICATION_TYPE><NORAD_CAT_ID>25413</NORAD_CAT_ID><ELEMENT_SET_NO>999</ELEMENT_SET_NO><REV_AT_EPOCH>33131</REV_AT_EPOCH><BSTAR>.43873E-3</BSTAR><MEAN_MOTION_DOT>.1066E-4</MEAN_MOTION_DOT><MEAN_MOTION_DDOT>0</MEAN_MOTION_DDOT></tleParameters></data></segment></body></omm>
<omm id="CCSDS_OMM_VERS" version="2.0">
<header><CREATION_DATE/><ORIGINATOR/></header><body><segment><metadata><OBJECT_NAME>ORBCOMM FM18 [-]</OBJECT_NAME><OBJECT_ID>1998-046B</OBJECT_ID><CENTER_NAME>EARTH</CENTER_NAME><REF_FRAME>TEME</REF_FRAME><TIME_SYSTEM>UTC</TIME_SYSTEM><MEAN_ELEMENT_THEORY>SGP4</MEAN_ELEMENT_THEORY></metadata><data><meanElements><EPOCH>2024-02-02T00:27:24.209280</EPOCH><MEAN_MOTION>14.35400839</MEAN_MOTION><ECCENTRICITY>.0006182</ECCENTRICITY><INCLINATION>44.9955</INCLINATION><RA_OF_ASC_NODE>27.5339</RA_OF_ASC_NODE><ARG_OF_PERICENTER>283.7831</ARG_OF_PERICENTER><MEAN_ANOMALY>76.2328</MEAN_ANOMALY></meanElements><tleParameters><EPHEMERIS_TYPE>0</EPHEMERIS_TYPE><CLASSIFICATION_TYPE>U</CLASSIFICATION_TYPE><NORAD_CAT_ID>25414</NORAD_CAT_ID><ELEMENT_SET_NO>999</ELEMENT_SET_NO><REV_AT_EPOCH>33216</REV_AT_EPOCH><BSTAR>.60285E-3</BSTAR><MEAN_MOTION_DOT>.1606E-4</MEAN_MOTION_DOT><MEAN_MOTION_DDOT>0</MEAN_MOTION_DDOT></tleParameters></data></segment></body></omm>
<omm id="CCSDS_OMM_VERS" version="2.0">
<header><CREATION_DATE/><ORIGINATOR/></header><body><segment><metadata><OBJECT_NAME>ORBCOMM FM19 [+]</OBJECT_NAME><OBJECT_ID>1998-046C</OBJECT_ID><CENTER_NAME>EARTH</CENTER_NAME><REF_FRAME>TEME</REF_FRAME><TIME_SYSTEM>UTC</TIME_SYSTEM><MEAN_ELEMENT_THEORY>SGP4</MEAN_ELEMENT_THEORY></metadata><data><meanElements><EPOCH>2024-02-02T10:07:18.344640</EPOCH><MEAN_MOTION>14.35245241</MEAN_MOTION><ECCENTRICITY>.0005008</ECCENTRICITY><INCLINATION>44.9965</INCLINATION><RA_OF_ASC_NODE>26.9137</RA_OF_ASC_NODE><ARG_OF_PERICENTER>282.6964</ARG_OF_PERICENTER><MEAN_ANOMALY>233.5221</MEAN_ANOMALY></meanElements><tleParameters><EPHEMERIS_TYPE>0</EPHEMERIS_TYPE><CLASSIFICATION_TYPE>U</CLASSIFICATION_TYPE><NORAD_CAT_ID>25415</NORAD_CAT_ID><ELEMENT_SET_NO>999</ELEMENT_SET_NO><REV_AT_EPOCH>33218</REV_AT_EPOCH><BSTAR>.59523E-3</BSTAR><MEAN_MOTION_DOT>.1578E-4</MEAN_MOTION_DOT><MEAN_MOTION_DDOT>0</MEAN_MOTION_DDOT></tleParameters></data></segment></body></omm>

</ndm>
